STARLINK-1877           
1 47162U 20088AS  25014.91667824  .00158437  00000+0  40551-2 0  9997
2 47162  53.0519   9.2724 0009820  52.5632  98.3371 15.38299956  5914
STARLINK-1878           
1 47163U 20088AT  25014.91667824  .00919594  41712-3  17290-2 0  9990
2 47163  53.0420   5.4032 0010879  76.4708 300.1475 16.00236046  5955
STARLINK-1879           
1 47164U 20088AU  25014.91667824  .00185474  00000+0  30536-2 0  9992
2 47164  53.0435 345.7639 0001819 109.8423 269.5133 15.51193499  5941
STARLINK-1880           
1 47165U 20088AV  25014.91667824  .00512443  00000+0  20304-2 0  9995
2 47165  53.0491 359.7313 0001812 111.5403 338.2391 15.84873820  5803
STARLINK-1887           
1 47170U 20088BA  25014.91667824  .00493292  10773-3  13392-2 0  9992
2 47170  53.0422 357.4006 0005412 108.3898 187.0027 15.93648573  5978
STARLINK-1888           
1 47171U 20088BB  25014.27409841  .00007445  00000+0  51811-3 0  9993
2 47171  53.0559  14.4440 0001534  95.8320 264.2844 15.06405452228763
STARLINK-1890           
1 47173U 20088BD  25014.71546440  .00108429  00000+0  24885-2 0  9995
2 47173  53.0483  11.0296 0007336  58.1849 301.9869 15.41863402228855
STARLINK-1895           
1 47175U 20088BF  25014.91667824  .00235248  00000+0  12072-2 0  9994
2 47175  53.0497 334.4888 0002290 146.9822 144.2714 15.80059076  5972
STARLINK-1907           
1 47177U 20088BH  25014.91667824  .00145713  00000+0  14459-2 0  9994
2 47177  53.0490 353.8515 0013510  64.9906 264.6965 15.64722751  5983
STARLINK-1912           
1 47178U 20088BJ  25014.70442405  .00004034  00000+0  28948-3 0  9997
2 47178  53.0552  22.5131 0001459  90.3867 269.7289 15.06406681228681
STARLINK-1913           
1 47179U 20088BK  25014.42706500  .00002665  00000+0  19778-3 0  9995
2 47179  53.0559  33.7623 0001531  97.5388 262.5775 15.06395322228508
STARLINK-2017           
1 47351U 21005C   25014.53392971  .00010345  00000+0  71231-3 0  9998
2 47351  53.0545 103.2676 0001579  96.8779 263.2390 15.06401717220424
STARLINK-2034           
1 47352U 21005D   25014.61962821  .00003342  00000+0  24302-3 0  9991
2 47352  53.0541 142.8983 0001381  83.0589 277.0557 15.06415419219878
STARLINK-2045           
1 47353U 21005E   25014.57493997  .00005196  00000+0  36709-3 0  9993
2 47353  53.0553  88.0978 0001535  99.3752 260.7411 15.06434864220640
STARLINK-2046           
1 47354U 21005F   25014.63950844  .00015124  00000+0  10308-2 0  9998
2 47354  53.0533 108.3493 0001325  97.2002 262.9138 15.06444554220365
STARLINK-2047           
1 47355U 21005G   25014.47680107  .00008429  00000+0  58376-3 0  9991
2 47355  53.0532  93.5356 0001241 101.3336 258.7792 15.06421135220552
STARLINK-2049           
1 47356U 21005H   25014.65556631  .00015719  00000+0  10705-2 0  9999
2 47356  53.0536 112.7349 0001276  83.1518 276.9616 15.06445492220302
STARLINK-2050           
1 47357U 21005J   25014.63810948  .00001546  00000+0  12263-3 0  9997
2 47357  53.0547 143.2388 0001445  93.9037 266.2117 15.06407614219872
STARLINK-2055           
1 47358U 21005K   25014.53298724  .00012747  00000+0  87249-3 0  9990
2 47358  53.0568 113.2752 0001603  90.5729 269.5444 15.06424565220285
STARLINK-2069           
1 47359U 21005L   25014.73712785  .00065226  00000+0  26245-2 0  9999
2 47359  53.0322 127.4420 0001297 301.0672  59.0197 15.24304155220109
STARLINK-2071           
1 47361U 21005N   25014.67399394  .00013608  00000+0  92987-3 0  9996
2 47361  53.0547 112.6487 0001495  97.6972 262.4187 15.06431299220302
STARLINK-2076           
1 47362U 21005P   25014.65279980  .00001179  00000+0  97974-4 0  9995
2 47362  53.0544 142.7440 0001246  77.0865 283.0263 15.06413349219881
STARLINK-2081           
1 47366U 21005T   25014.61593985  .00001570  00000+0  12416-3 0  9991
2 47366  53.0544 142.9134 0001239  88.4993 271.6138 15.06424794219876
STARLINK-2082           
1 47367U 21005U   25014.57540106  .00001303  00000+0  10630-3 0  9994
2 47367  53.0547 143.0983 0001465  83.9450 276.1706 15.06409110219879
STARLINK-2084           
1 47368U 21005V   25014.63439314  .00004336  00000+0  30974-3 0  9992
2 47368  53.0517 142.8296 0001395 100.2588 259.8558 15.06408836219886
STARLINK-2086           
1 47370U 21005X   25014.53116840  .00014233  00000+0  97175-3 0  9993
2 47370  53.0549 103.2949 0001633 100.2118 259.9055 15.06427423220433
STARLINK-2088           
1 47371U 21005Y   25014.58277377  .00001409  00000+0  11342-3 0  9995
2 47371  53.0545 143.0623 0001197  84.4902 275.6224 15.06407758219878
STARLINK-2092           
1 47373U 21005AA  25014.57908538  .00000561  00000+0  56518-4 0  9999
2 47373  53.0532 143.0771 0001282  87.1400 272.9736 15.06408927219875
STARLINK-2093           
1 47374U 21005AB  25014.66385997  .00001986  00000+0  15212-3 0  9995
2 47374  53.0549 142.6685 0001270  85.5798 274.5336 15.06408854219886
STARLINK-2094           
1 47375U 21005AC  25014.67123007  .00003608  00000+0  26091-3 0  9999
2 47375  53.0543 142.6647 0001299  96.2240 263.8897 15.06415184219888
STARLINK-2096           
1 47376U 21005AD  25014.60857554  .00004915  00000+0  34841-3 0  9998
2 47376  53.0537 142.9487 0001324  85.2091 274.9050 15.06419635219876
STARLINK-2097           
1 47377U 21005AE  25014.72651770  .00003070  00000+0  22480-3 0  9991
2 47377  53.0552 142.4129 0001311  90.0985 270.0154 15.06419791219891
STARLINK-2098           
1 47378U 21005AF  25014.65280051  .00016753  00000+0  11398-2 0  9991
2 47378  53.0552 102.7451 0001513  93.9768 266.1394 15.06437014220447
STARLINK-2099           
1 47379U 21005AG  25014.46019356  .00002520  00000+0  18791-3 0  9991
2 47379  53.0551 103.6047 0001719  76.0725 284.0455 15.06415010220417
STARLINK-2100           
1 47380U 21005AH  25014.55604175  .00003966  00000+0  28484-3 0  9997
2 47380  53.0554 113.1800 0001640  98.6042 261.5133 15.06419055220292
STARLINK-2101           
1 47381U 21005AJ  25014.57218196  .00002708  00000+0  20052-3 0  9990
2 47381  53.0545 118.1966 0001529  98.9378 261.1784 15.06420580220228
STARLINK-2102           
1 47382U 21005AK  25014.68135969  .00004438  00000+0  31643-3 0  9999
2 47382  53.0553 112.6175 0001682 105.4535 254.6639 15.06429325220309
STARLINK-2103           
1 47383U 21005AL  25014.66021974  .00004088  00000+0  29305-3 0  9991
2 47383  53.0547 102.9943 0001877  93.3031 266.8173 15.06419301220446
STARLINK-2104           
1 47384U 21005AM  25014.53396039  .00006595  00000+0  46087-3 0  9996
2 47384  53.0548 113.5229 0001284  90.8148 269.2988 15.06426268220289
STARLINK-2105           
1 47385U 21005AN  25014.53023808  .00000359  00000+0  42946-4 0  9991
2 47385  53.0556 113.2967 0001512  80.3131 279.8029 15.06421703220287
STARLINK-2106           
1 47386U 21005AP  25014.49339075  .00010685  00000+0  73462-3 0  9992
2 47386  53.0553 113.4651 0001551  82.1519 277.9646 15.06424596220287
STARLINK-2109           
1 47388U 21005AR  25014.62699712  .00002374  00000+0  17816-3 0  9993
2 47388  53.0544 142.8631 0001353  87.5826 272.5318 15.06418106219873
STARLINK-2110           
1 47389U 21005AS  25014.67212887  .00010852  00000+0  74581-3 0  9995
2 47389  53.0556 122.6508 0001503  97.6178 262.4982 15.06425030220168
STARLINK-2111           
1 47390U 21005AT  25014.73389068  .00004001  00000+0  28723-3 0  9996
2 47390  53.0544 142.3826 0001190  85.1707 274.9418 15.06417322219896
STARLINK-2112           
1 47391U 21005AU  25014.67673387  .00019522  00000+0  13245-2 0  9996
2 47391  53.0540 112.6401 0001447  89.2139 270.9015 15.06437053220301
STARLINK-2113           
1 47392U 21005AV  25014.54500115  .00001365  00000+0  11052-3 0  9992
2 47392  53.0574 113.2271 0001569 119.9731 240.1414 15.06394812220896
STARLINK-2114           
1 47393U 21005AW  25014.63764660  .00015902  00000+0  10827-2 0  9990
2 47393  53.0549  88.1705 0001390  83.8809 276.2338 15.06445625220645
STARLINK-2117           
1 47395U 21005AY  25014.52379823  .00012769  00000+0  87365-3 0  9993
2 47395  53.0553 103.3234 0001592  94.5108 265.6063 15.06439892220426
STARLINK-2119           
1 47397U 21005BA  25014.76337973  .00003162  00000+0  23096-3 0  9999
2 47397  53.0534 142.2501 0001625 101.3793 258.7378 15.06416611219907
STARLINK-2121           
1 47399U 21005BC  25014.57358104  .00005866  00000+0  41207-3 0  9996
2 47399  53.0553 123.3459 0001523  99.6658 260.4503 15.06429523220142
STARLINK-2122           
1 47400U 21005BD  25014.46850110  .00000581  00000+0  57842-4 0  9993
2 47400  53.0540 103.5833 0001384  91.2681 268.8466 15.06419678220416
STARLINK-2123           
1 47401U 21005BE  25014.55235537  .00005704  00000+0  40133-3 0  9990
2 47401  53.0536 113.2024 0001347 100.7037 259.4103 15.06419094220294
STARLINK-2127           
1 47403U 21005BG  25014.62649518  .00019799  00000+0  28475-3 0  9992
2 47403  53.0522 107.0281 0001706  51.5350 308.5813 15.56097009220384
STARLINK-2128           
1 47404U 21005BH  25014.70719181 -.00003166  00000+0 -19383-3 0  9997
2 47404  53.0554 112.5013 0001487  81.3927 278.7230 15.06384403220317
STARLINK-2130           
1 47405U 21005BJ  25014.75601638  .00001789  00000+0  13895-3 0  9999
2 47405  53.0548 142.2834 0001115  92.9900 267.1216 15.06401121219893
STARLINK-2133           
1 47406U 21005BK  25014.65188893  .00008382  00000+0  58039-3 0  9997
2 47406  53.0541 112.7502 0001170  60.0840 300.0265 15.06433727220307
STARLINK-2134           
1 47407U 21005BL  25014.65925338  .00015965  00000+0  10869-2 0  9994
2 47407  53.0539 112.7199 0001157  85.6012 274.5109 15.06447301220301
STARLINK-2135           
1 47408U 21005BM  25014.56342307  .00017285  00000+0  11754-2 0  9995
2 47408  53.0538 113.1480 0001515  92.2366 267.8797 15.06433502220297
STARLINK-1782           
1 47548U 21009A   25014.91667824  .00446827  00000+0  19344-2 0  9998
2 47548  53.0497  69.4167 0008957  19.8915 133.5882 15.83132801  5987
